[{"OBJECT_NAME":"STARLINK-1281","OBJECT_ID":"2020-019L","EPOCH":"2026-03-10T00:00:02.999808","MEAN_MOTION":15.29341528,"ECCENTRICITY":0.00017582,"INCLINATION":53.1566,"RA_OF_ASC_NODE":163.8375,"ARG_OF_PERICENTER":99.1005,"MEAN_ANOMALY":277.6835,"EPHEMERIS_TYPE":0,"CLASSIFICATION_TYPE":"U","NORAD_CAT_ID":45370,"ELEMENT_SET_NO":999,"REV_AT_EPOCH":579,"BSTAR":0.00064184087,"MEAN_MOTION_DOT":0.00018202,"MEAN_MOTION_DDOT":0},{"OBJECT_NAME":"COSMOS 2251 DEB","OBJECT_ID":"1993-036DE","EPOCH":"2026-03-09T20:53:28.838688","MEAN_MOTION":15.29467846,"ECCENTRICITY":0.00306247,"INCLINATION":73.7716,"RA_OF_ASC_NODE":223.0836,"ARG_OF_PERICENTER":342.1726,"MEAN_ANOMALY":17.8397,"EPHEMERIS_TYPE":0,"CLASSIFICATION_TYPE":"U","NORAD_CAT_ID":33901,"ELEMENT_SET_NO":999,"REV_AT_EPOCH":90839,"BSTAR":0.0037194515,"MEAN_MOTION_DOT":0.00109321,"MEAN_MOTION_DDOT":0}]
